IRIDIUM 136             
1 42962U 17061H   23281.49419293  .00000267  00000+0  88159-4 0  9994
2 42962  86.3927  75.9268 0002284  86.2627 273.8830 14.34220686313985
